NORAD_CAT_ID,OBJECT_NAME,OBJECT_TYPE,EPOCH,MEAN_MOTION,ECCENTRICITY,INCLINATION,RA_OF_ASC_NODE,ARG_OF_PERICENTER,MEAN_ANOMALY,BSTAR,MEAN_MOTION_DOT,MEAN_MOTION_DDOT,TLE_LINE0,TLE_LINE1,TLE_LINE2,SEMIMAJOR_AXIS,PERIOD,APOGEE,PERIGEE,DECAYED
54805.0,TBA - TO BE ASSIGNED,UNKNOWN,2022-12-27 18:00:00,15.78441314,0.000285,53.2176,256.9642,266.8983,30.0896,-0.0074278999999999,-0.01170246,0.0,0 TBA - TO BE ASSIGNED,1 54805U 22175AZ  22361.75001157 -.01170246  00000-0 -74279-2 0  9993,2 54805  53.2176 256.9642 0002850 266.8983  30.0896 15.78441314  1307,6712.993,91.229,336.772,332.945,
54805.0,TBA - TO BE ASSIGNED,UNKNOWN,2022-12-27 22:00:00,15.77974951,0.0001817,53.2172,256.1346,306.23,218.261,-0.0073322,-0.01134553,0.0,0 TBA - TO BE ASSIGNED,1 54805U 22175AZ  22361.91667824 -.01134553  00000-0 -73322-2 0  9999,2 54805  53.2172 256.1346 0001817 306.2300 218.2610 15.77974951  1301,6714.316,91.256,337.401,334.961,
54805.0,STARLINK-5417,PAYLOAD,2022-12-28 08:00:01,15.76934685,0.0001683,53.2171,254.0597,19.6473,352.3958,-0.008121,-0.01191813,0.0,0 STARLINK-5417,1 54805U 22175AZ  22362.33334491 -.01191813  00000-0 -81210-2 0  9994,2 54805  53.2171 254.0597 0001683  19.6473 352.3958 15.76934685  1395,6717.268,91.316,340.264,338.0030000000001,0.0
54805.0,STARLINK-5417,PAYLOAD,2022-12-28 14:00:01,15.76282862,0.0001409999999999,53.2172,252.8148,32.9832,318.823,-0.0083525,-0.01190582,0.0,0 STARLINK-5417,1 54805U 22175AZ  22362.58334491 -.01190582  00000-0 -83525-2 0  9994,2 54805  53.2172 252.8148 0001410  32.9832 318.8230 15.76282862  1303,6719.12,91.354,341.93300000000005,340.038,0.0
54805.0,STARLINK-5417,PAYLOAD,2022-12-28 22:00:00,15.75420496,0.000135,53.2173,251.1604,48.7542,35.1511,-0.0087282,-0.01196615,0.0,0 STARLINK-5417,1 54805U 22175AZ  22362.91667824 -.01196615  00000-0 -87282-2 0  9997,2 54805  53.2173 251.1604 0001350  48.7542  35.1511 15.75420496  1306,6721.571999999999,91.404,344.344,342.529,0.0
54805.0,STARLINK-5417,PAYLOAD,2022-12-29 08:00:01,15.75007456,0.0002177999999999,53.2153,249.0957,64.8192,223.0135,0.00016248,0.00024088,0.0,0 STARLINK-5417,1 54805U 22175AZ  22363.33334491  .00024088  00000-0  16248-3 0  9991,2 54805  53.2153 249.0957 0002178  64.8192 223.0135 15.75007456  1543,6722.746999999999,91.428,346.076,343.148,0.0
54805.0,STARLINK-5417,PAYLOAD,2022-12-29 14:00:01,15.73565845,0.0001355,53.2173,247.8531,42.517,222.4766,-0.0035518,-0.00479211,0.0,0 STARLINK-5417,1 54805U 22175AZ  22363.58334491 -.00479211  00000-0 -35518-2 0  9992,2 54805  53.2173 247.8531 0001355  42.5170 222.4766 15.73565845  1300,6726.852,91.512,349.629,347.806,0.0
54805.0,STARLINK-5417,PAYLOAD,2022-12-29 16:00:00,15.73402728,0.0001244,53.2175,247.4404,46.6514,330.6911,-0.0021403,-0.00293301,0.0,0 STARLINK-5417,1 54805U 22175AZ  22363.66667824 -.00293301  00000-0 -21403-2 0  9992,2 54805  53.2175 247.4404 0001244  46.6514 330.6911 15.73402728  1608,6727.316999999999,91.521,350.019,348.345,0.0
54805.0,STARLINK-5417,PAYLOAD,2022-12-30 00:00:00,15.72883397,0.0001893,53.2166,245.7935,67.7501,38.9612,0.0016925999999999,0.00240577,0.0,0 STARLINK-5417,1 54805U 22175AZ  22364.00001157  .00240577  00000-0  16926-2 0  9991,2 54805  53.2166 245.7935 0001893  67.7501  38.9612 15.72883397  1653,6728.7980000000025,91.552,351.93699999999984,349.389,0.0
54805.0,STARLINK-5417,PAYLOAD,2022-12-30 08:00:01,15.73155472,0.0001564999999999,53.2152,244.1452,49.2598,146.2714,0.00019995,0.0002748,0.0,0 STARLINK-5417,1 54805U 22175AZ  22364.33334491  .00027480  00000-0  19995-3 0  9993,2 54805  53.2152 244.1452 0001565  49.2598 146.2714 15.73155472  1701,6728.022,91.536,350.94,348.834,0.0
54805.0,STARLINK-5417,PAYLOAD,2022-12-30 14:00:01,15.73178808,0.0001391,53.2153,242.9068,54.1042,118.0888,0.00019692,0.0002708,0.0,0 STARLINK-5417,1 54805U 22175AZ  22364.58334491  .00027080  00000-0  19692-3 0  9990,2 54805  53.2153 242.9068 0001391  54.1042 118.0888 15.73178808  1300,6727.956,91.534,350.756,348.885,0.0
54805.0,STARLINK-5417,PAYLOAD,2022-12-31 00:00:00,15.73190336,0.000151,53.2157,240.8471,44.8605,328.5095,0.0006917,0.0009755,0.0,0 STARLINK-5417,1 54805U 22175AZ  22365.00001157  .00097550  00000-0  69170-3 0  9993,2 54805  53.2157 240.8471 0001510  44.8605 328.5095 15.73190336  1817,6727.9230000000025,91.534,350.80400000000014,348.772,0.0
54805.0,STARLINK-5417,PAYLOAD,2022-12-31 08:00:01,15.73212497,0.000152,53.2173,239.1935,51.0004,51.1139,-8.745799999999999e-05,-0.00012882,0.0,0 STARLINK-5417,1 54805U 22175AZ  22365.33334491 -.00012882  00000-0 -87458-4 0  9996,2 54805  53.2173 239.1935 0001520  51.0004  51.1139 15.73212497  1861,6727.86,91.532,350.747,348.702,0.0
54805.0,STARLINK-5417,PAYLOAD,2022-12-31 14:00:01,15.73164945,0.0001324,53.2154,237.9584,50.0647,28.9138,0.00041266,0.00057605,0.0,0 STARLINK-5417,1 54805U 22175AZ  22365.58334491  .00057605  00000-0  41266-3 0  9999,2 54805  53.2154 237.9584 0001324  50.0647  28.9138 15.73164945  1304,6727.995,91.535,350.751,348.969,0.0
54805.0,STARLINK-5417,PAYLOAD,2022-12-31 16:00:00,15.7320533,0.0001355,53.2156,237.5463,53.4549,137.7367,-6.7206e-05,-0.00010043,0.0,0 STARLINK-5417,1 54805U 22175AZ  22365.66667824 -.00010043  00000-0 -67206-4 0  9997,2 54805  53.2156 237.5463 0001355  53.4549 137.7367 15.73205330  1914,6727.88,91.533,350.657,348.833,0.0
54805.0,STARLINK-5417,PAYLOAD,2022-12-31 22:00:00,15.73171769,0.0001521999999999,53.2152,236.3109,46.7258,121.1639,0.0001909,0.00026223,0.0,0 STARLINK-5417,1 54805U 22175AZ  22365.91667824  .00026223  00000-0  19090-3 0  9997,2 54805  53.2152 236.3109 0001522  46.7258 121.1639 15.73171769  1302,6727.976,91.535,350.865,348.81699999999995,0.0
54805.0,STARLINK-5417,PAYLOAD,2023-01-01 14:00:01,15.73134369,0.000109,53.2153,233.0101,42.4027,303.2951,0.00028244,0.00039092,0.0,0 STARLINK-5417,1 54805U 22175AZ  23001.58334491  .00039092  00000-0  28244-3 0  9998,2 54805  53.2153 233.0101 0001090  42.4027 303.2951 15.73134369  1301,6728.081999999999,91.537,350.681,349.214,0.0
54805.0,STARLINK-5417,PAYLOAD,2023-01-01 16:00:00,15.73136673,0.0001072999999999,53.2156,232.5981,40.9451,56.967,0.00036347,0.00050559,0.0,0 STARLINK-5417,1 54805U 22175AZ  23001.66667824  .00050559  00000-0  36347-3 0  9990,2 54805  53.2156 232.5981 0001073  40.9451  56.9670 15.73136673  2074,6728.076,91.537,350.663,349.219,0.0
54805.0,STARLINK-5417,PAYLOAD,2023-01-01 22:00:00,15.73164454,0.0001259,53.2153,231.3628,33.5453,41.0216,0.00038993,0.00054375,0.0,0 STARLINK-5417,1 54805U 22175AZ  23001.91667824  .00054375  00000-0  38993-3 0  9997,2 54805  53.2153 231.3628 0001259  33.5453  41.0216 15.73164454  1306,6727.996999999999,91.535,350.709,349.014,0.0
54805.0,STARLINK-5417,PAYLOAD,2023-01-02 14:27:23,15.73203957,0.0001376999999999,53.2153,227.9688,54.8453,305.2696,0.00014521,0.00019811,0.0,0 STARLINK-5417,1 54805U 22175AZ  23002.60235239  .00019811  00000-0  14521-3 0  9992,2 54805  53.2153 227.9688 0001377  54.8453 305.2696 15.73203957  2221,6727.884,91.533,350.675,348.82199999999995,0.0
54805.0,STARLINK-5417,PAYLOAD,2023-01-02 20:33:18,15.73193105,0.0001534,53.2152,226.7111,44.1407,315.9735,-2.300300000000001e-05,-3.846e-05,0.0,0 STARLINK-5417,1 54805U 22175AZ  23002.85646577 -.00003846  00000-0 -23003-4 0  9999,2 54805  53.2152 226.7111 0001534  44.1407 315.9735 15.73193105  4423,6727.915,91.534,350.81199999999984,348.74800000000016,0.0
54805.0,STARLINK-5417,PAYLOAD,2023-01-02 22:04:47,15.73193231,0.0001447,53.2153,226.3971,45.3745,314.7393,-1.0325e-05,-2.068e-05,0.0,0 STARLINK-5417,1 54805U 22175AZ  23002.91999403 -.00002068  00000-0 -10325-4 0  9993,2 54805  53.2153 226.3971 0001447  45.3745 314.7393 15.73193231  2273,6727.9140000000025,91.534,350.75300000000016,348.806,0.0
54805.0,STARLINK-5417,PAYLOAD,2023-01-03 05:42:11,15.73214225,0.000148,53.2151,224.825,49.7831,310.3319,0.00019511,0.00026866,0.0,0 STARLINK-5417,1 54805U 22175AZ  23003.23763474  .00026866  00000-0  19511-3 0  9991,2 54805  53.2151 224.8250 0001480  49.7831 310.3319 15.73214225  2328,6727.855,91.532,350.715,348.724,0.0
54805.0,STARLINK-5417,PAYLOAD,2023-01-03 11:48:06,15.73219866,0.0001136,53.2151,223.5674,52.4313,307.681,0.00022306,0.00030826,0.0,0 STARLINK-5417,1 54805U 22175AZ  23003.49174499  .00030826  00000-0  22306-3 0  9999,2 54805  53.2151 223.5674 0001136  52.4313 307.6810 15.73219866  4523,6727.839,91.532,350.468,348.939,0.0
54805.0,STARLINK-5417,PAYLOAD,2023-01-03 14:51:04,15.73198133,0.0001373,53.2151,222.9388,44.1258,315.9871,6.7858e-05,8.913e-05,0.0,0 STARLINK-5417,1 54805U 22175AZ  23003.61880504  .00008913  00000-0  67858-4 0  9998,2 54805  53.2151 222.9388 0001373  44.1258 315.9871 15.73198133  2381,6727.9,91.533,350.689,348.842,0.0
54805.0,STARLINK-5417,PAYLOAD,2023-01-03 19:25:31,15.73219501,0.0001483,53.2148,221.9963,41.3123,318.801,0.00020985,0.00028957,0.0,0 STARLINK-5417,1 54805U 22175AZ  23003.80938803  .00028957  00000-0  20985-3 0  9994,2 54805  53.2148 221.9963 0001483  41.3123 318.8010 15.73219501  2411,6727.84,91.532,350.702,348.707,0.0
54805.0,STARLINK-5417,PAYLOAD,2023-01-04 01:31:27,15.73192058,0.0001899,53.2148,220.7385,43.0502,317.0667,0.0003436,0.00047862,0.0,0 STARLINK-5417,1 54805U 22175AZ  23004.06350731  .00047862  00000-0  34360-3 0  9999,2 54805  53.2148 220.7385 0001899  43.0502 317.0667 15.73192058  2457,6727.918000000002,91.534,351.06,348.505,0.0
54805.0,STARLINK-5417,PAYLOAD,2023-01-04 07:37:22,15.73226497,0.0001421,53.2145,219.4813,45.9265,314.1872,0.00051713,0.00072669,0.0,0 STARLINK-5417,1 54805U 22175AZ  23004.31761600  .00072669  00000-0  51713-3 0  9992,2 54805  53.2145 219.4813 0001421  45.9265 314.1872 15.73226497  4658,6727.82,91.532,350.641,348.72900000000016,0.0
54805.0,STARLINK-5417,PAYLOAD,2023-01-05 14:06:56,15.73192519,9.8e-05,53.213,213.1943,89.7171,270.3962,0.00039222,0.00054767,0.0,0 STARLINK-5417,1 54805U 22175AZ  23005.58815932  .00054767  00000-0  39222-3 0  9990,2 54805  53.2130 213.1943 0000980  89.7171 270.3962 15.73192519  2690,6727.917,91.534,350.441,349.122,0.0
